{
  "type": "FeatureCollection",
  "features": [
    {
      "type": "Feature",
      "properties": {
        "norad_id": 34570,
        "name": "COSMOS 2251 DEB",
        "group": "cosmos-2251-debris",
        "lat": -27.213425992884577,
        "lon": 48.318048407552034,
        "alt_km": 934.9781162065083,
        "timestamp": "2025-12-11T20:41:15.475631+00:00",
        "meta_object_name": "COSMOS 2251 DEB",
        "meta_object_id": "1993-036VG",
        "meta_epoch": "2025-12-10T10:15:47.270880",
        "meta_mean_motion": 13.99813899,
        "meta_eccentricity": 0.01902081,
        "meta_inclination": 73.9575,
        "meta_ra_of_asc_node": 222.3032,
        "meta_arg_of_pericenter": 105.3156,
        "meta_mean_anomaly": 75.4929,
        "meta_ephemeris_type": 0,
        "meta_classification_type": "U",
        "meta_norad_cat_id": 34570,
        "meta_element_set_no": 999,
        "meta_rev_at_epoch": 85568,
        "meta_bstar": 0.00064940557,
        "meta_mean_motion_dot": 1.09e-05,
        "meta_mean_motion_ddot": 0,
        "tle_line1": "1 34570U 93036VG  25344.42763045  .00001090  00000+0  64941-3 0  9995",
        "tle_line2": "2 34570  73.9575 222.3032 0190208 105.3156  75.4929 13.99813899855680"
      },
      "geometry": {
        "type": "Point",
        "coordinates": [
          48.318048407552034,
          -27.213425992884577
        ]
      }
    },
    {
      "type": "Feature",
      "properties": {
        "norad_id": 34571,
        "name": "COSMOS 2251 DEB",
        "group": "cosmos-2251-debris",
        "lat": -72.38268936801508,
        "lon": 68.40573500403515,
        "alt_km": 701.9960906163597,
        "timestamp": "2025-12-11T20:41:15.475641+00:00",
        "meta_object_name": "COSMOS 2251 DEB",
        "meta_object_id": "1993-036VH",
        "meta_epoch": "2025-12-09T06:09:38.106720",
        "meta_mean_motion": 14.48721172,
        "meta_eccentricity": 0.0066557,
        "meta_inclination": 74.0386,
        "meta_ra_of_asc_node": 188.9585,
        "meta_arg_of_pericenter": 224.7562,
        "meta_mean_anomaly": 134.8218,
        "meta_ephemeris_type": 0,
        "meta_classification_type": "U",
        "meta_norad_cat_id": 34571,
        "meta_element_set_no": 999,
        "meta_rev_at_epoch": 87243,
        "meta_bstar": 0.0025604,
        "meta_mean_motion_dot": 9.914e-05,
        "meta_mean_motion_ddot": 0,
        "tle_line1": "1 34571U 93036VH  25343.25669105  .00009914  00000+0  25604-2 0  9993",
        "tle_line2": "2 34571  74.0386 188.9585 0066557 224.7562 134.8218 14.48721172872439"
      },
      "geometry": {
        "type": "Point",
        "coordinates": [
          68.40573500403515,
          -72.38268936801508
        ]
      }
    },
    {
      "type": "Feature",
      "properties": {
        "norad_id": 34572,
        "name": "COSMOS 2251 DEB",
        "group": "cosmos-2251-debris",
        "lat": 56.36413215352465,
        "lon": -88.3724415653479,
        "alt_km": 705.178983621463,
        "timestamp": "2025-12-11T20:41:15.475651+00:00",
        "meta_object_name": "COSMOS 2251 DEB",
        "meta_object_id": "1993-036VJ",
        "meta_epoch": "2025-12-11T10:27:51.023808",
        "meta_mean_motion": 14.49975618,
        "meta_eccentricity": 0.00630063,
        "meta_inclination": 74.0105,
        "meta_ra_of_asc_node": 117.9585,
        "meta_arg_of_pericenter": 191.9499,
        "meta_mean_anomaly": 225.9924,
        "meta_ephemeris_type": 0,
        "meta_classification_type": "U",
        "meta_norad_cat_id": 34572,
        "meta_element_set_no": 999,
        "meta_rev_at_epoch": 87359,
        "meta_bstar": 0.0056546017,
        "meta_mean_motion_dot": 0.00022498,
        "meta_mean_motion_ddot": 0,
        "tle_line1": "1 34572U 93036VJ  25345.43600722  .00022498  00000+0  56546-2 0  9997",
        "tle_line2": "2 34572  74.0105 117.9585 0063006 191.9499 225.9924 14.49975618873592"
      },
      "geometry": {
        "type": "Point",
        "coordinates": [
          -88.3724415653479,
          56.36413215352465
        ]
      }
    },
    {
      "type": "Feature",
      "properties": {
        "norad_id": 34574,
        "name": "COSMOS 2251 DEB",
        "group": "cosmos-2251-debris",
        "lat": -54.43308041192181,
        "lon": 21.288782739484052,
        "alt_km": 691.8859768140546,
        "timestamp": "2025-12-11T20:41:15.475661+00:00",
        "meta_object_name": "COSMOS 2251 DEB",
        "meta_object_id": "1993-036VL",
        "meta_epoch": "2025-12-11T15:06:06.289344",
        "meta_mean_motion": 14.70586286,
        "meta_eccentricity": 0.00669128,
        "meta_inclination": 74.069,
        "meta_ra_of_asc_node": 45.2835,
        "meta_arg_of_pericenter": 66.6718,
        "meta_mean_anomaly": 84.5906,
        "meta_ephemeris_type": 0,
        "meta_classification_type": "U",
        "meta_norad_cat_id": 34574,
        "meta_element_set_no": 999,
        "meta_rev_at_epoch": 88762,
        "meta_bstar": 0.0014231911,
        "meta_mean_motion_dot": 8.935e-05,
        "meta_mean_motion_ddot": 0,
        "tle_line1": "1 34574U 93036VL  25345.62923946  .00008935  00000+0  14232-2 0  9992",
        "tle_line2": "2 34574  74.0690  45.2835 0066912  66.6718  84.5906 14.70586286887626"
      },
      "geometry": {
        "type": "Point",
        "coordinates": [
          21.288782739484052,
          -54.43308041192181
        ]
      }
    },
    {
      "type": "Feature",
      "properties": {
        "norad_id": 34576,
        "name": "COSMOS 2251 DEB",
        "group": "cosmos-2251-debris",
        "lat": -37.7716537763968,
        "lon": 127.04260472179692,
        "alt_km": 710.1216671810989,
        "timestamp": "2025-12-11T20:41:15.475671+00:00",
        "meta_object_name": "COSMOS 2251 DEB",
        "meta_object_id": "1993-036VN",
        "meta_epoch": "2025-12-10T20:48:54.725184",
        "meta_mean_motion": 14.55400775,
        "meta_eccentricity": 0.0008018,
        "meta_inclination": 74.0338,
        "meta_ra_of_asc_node": 141.7437,
        "meta_arg_of_pericenter": 276.7745,
        "meta_mean_anomaly": 234.197,
        "meta_ephemeris_type": 0,
        "meta_classification_type": "U",
        "meta_norad_cat_id": 34576,
        "meta_element_set_no": 999,
        "meta_rev_at_epoch": 88439,
        "meta_bstar": 0.0013283,
        "meta_mean_motion_dot": 5.748e-05,
        "meta_mean_motion_ddot": 0,
        "tle_line1": "1 34576U 93036VN  25344.86730006  .00005748  00000+0  13283-2 0  9996",
        "tle_line2": "2 34576  74.0338 141.7437 0008018 276.7745 234.1970 14.55400775884390"
      },
      "geometry": {
        "type": "Point",
        "coordinates": [
          127.04260472179692,
          -37.7716537763968
        ]
      }
    },
    {
      "type": "Feature",
      "properties": {
        "norad_id": 34579,
        "name": "COSMOS 2251 DEB",
        "group": "cosmos-2251-debris",
        "lat": -29.019443324137725,
        "lon": 54.654391987793325,
        "alt_km": 744.4620371309193,
        "timestamp": "2025-12-11T20:41:15.475680+00:00",
        "meta_object_name": "COSMOS 2251 DEB",
        "meta_object_id": "1993-036VR",
        "meta_epoch": "2025-12-11T10:35:49.706592",
        "meta_mean_motion": 14.45303505,
        "meta_eccentricity": 0.00275775,
        "meta_inclination": 74.0529,
        "meta_ra_of_asc_node": 226.3099,
        "meta_arg_of_pericenter": 295.1402,
        "meta_mean_anomaly": 248.6838,
        "meta_ephemeris_type": 0,
        "meta_classification_type": "U",
        "meta_norad_cat_id": 34579,
        "meta_element_set_no": 999,
        "meta_rev_at_epoch": 88155,
        "meta_bstar": 0.00070449772,
        "meta_mean_motion_dot": 2.459e-05,
        "meta_mean_motion_ddot": 0,
        "tle_line1": "1 34579U 93036VR  25345.44154753  .00002459  00000+0  70450-3 0  9999",
        "tle_line2": "2 34579  74.0529 226.3099 0027577 295.1402 248.6838 14.45303505881555"
      },
      "geometry": {
        "type": "Point",
        "coordinates": [
          54.654391987793325,
          -29.019443324137725
        ]
      }
    },
    {
      "type": "Feature",
      "properties": {
        "norad_id": 34582,
        "name": "COSMOS 2251 DEB",
        "group": "cosmos-2251-debris",
        "lat": 23.533014368623466,
        "lon": 86.84047260564033,
        "alt_km": 768.9705806102093,
        "timestamp": "2025-12-11T20:41:15.475690+00:00",
        "meta_object_name": "COSMOS 2251 DEB",
        "meta_object_id": "1993-036VU",
        "meta_epoch": "2025-12-11T13:19:09.148800",
        "meta_mean_motion": 14.43314111,
        "meta_eccentricity": 0.00477893,
        "meta_inclination": 74.0198,
        "meta_ra_of_asc_node": 274.5801,
        "meta_arg_of_pericenter": 24.9636,
        "meta_mean_anomaly": 335.3816,
        "meta_ephemeris_type": 0,
        "meta_classification_type": "U",
        "meta_norad_cat_id": 34582,
        "meta_element_set_no": 999,
        "meta_rev_at_epoch": 87930,
        "meta_bstar": 0.0012416925,
        "meta_mean_motion_dot": 4.218e-05,
        "meta_mean_motion_ddot": 0,
        "tle_line1": "1 34582U 93036VU  25345.55496700  .00004218  00000+0  12417-2 0  9999",
        "tle_line2": "2 34582  74.0198 274.5801 0047789  24.9636 335.3816 14.43314111879304"
      },
      "geometry": {
        "type": "Point",
        "coordinates": [
          86.84047260564033,
          23.533014368623466
        ]
      }
    }
  ]
}